STARLINK-37134          
1 68281U 26055V   26095.25002315 -.00011433  00000+0 -54327-4 0  9991
2 68281  53.1589 204.0085 0001044  48.3949 351.8929 15.80924527  3905
STARLINK-37160          
1 68282U 26055W   26095.25002315 -.00018083  00000+0 -87960-4 0  9999
2 68282  53.1590 204.0186 0000642  96.3161 299.6775 15.80949740  3904
STARLINK-37124          
1 68283U 26055X   26095.25002315  .00056382  00000+0  28697-3 0  9993
2 68283  53.1591 204.0006 0001378  66.1034 338.4558 15.80900008  3903
STARLINK-37159          
1 68284U 26055Y   26095.25002315  .00012190  00000+0  65066-4 0  9995
2 68284  53.1590 203.9919 0000762 112.3204 296.5022 15.80921894  3909
STARLINK-36725          
1 68285U 26055Z   26095.25002315  .00036317  00000+0  18648-3 0  9996
2 68285  53.1590 203.9821 0000926 105.6438 307.4603 15.80906767  3907
STARLINK-36998          
1 68286U 26055AA  26095.25002315 -.00036002  00000+0 -17896-3 0  9994
2 68286  53.1592 203.9667 0001256  73.4951 348.1352 15.80951112  3904
STARLINK-37165          
1 68287U 26055AB  26095.25002315 -.00018473  00000+0 -89956-4 0  9994
2 68287  53.1592 203.9559 0000685  85.4141 340.4891 15.80945230  3901
STARLINK-37016          
1 68288U 26055AC  26095.25002315 -.00007618  00000+0 -34963-4 0  9992
2 68288  53.1590 203.9743 0001000  98.3292 319.0016 15.80948860  3900
STARLINK-37010          
1 68289U 26055AD  26095.25002315 -.00118549  00000+0 -60122-3 0  9994
2 68289  53.1593 203.9471 0001376  60.1954   9.9219 15.81019557  3903
STARLINK-37151          
1 68290U 26055AE  26095.25002315 -.00043850  00000+0 -21883-3 0  9999
2 68290  53.1592 203.9382 0000870 101.2243 333.2016 15.80964072  3909
STRIX-6                 
1 68291U 26056A   26095.17576130  .00005348  00000+0  44807-3 0  9992
2 68291  50.2836 334.8008 0016494 324.1008  35.8832 14.99705790  2316
ELECTRON KICK STAGE R/B 
1 68293U 26056C   26095.23107727  .00102429  00000+0  15716-2 0  9997
2 68293  50.2916 329.9092 0152376  73.8729 287.8951 15.41260946  2399
