CCSDS_OMM_VERS = 2.0
CREATION_DATE  = 
ORIGINATOR     = 

OBJECT_NAME    = STARLINK-37134
OBJECT_ID      = 2026-055V
CENTER_NAME    = EARTH
REF_FRAME      = TEME
TIME_SYSTEM    = UTC
MEAN_ELEMENT_THEORY = SGP/SGP4

EPOCH          = 2026-04-05T06:00:02.000160
MEAN_MOTION    = 15.80924527
ECCENTRICITY   = .00010443
INCLINATION    = 53.1589
RA_OF_ASC_NODE = 204.0085
ARG_OF_PERICENTER = 48.3949
MEAN_ANOMALY   = 351.8929

EPHEMERIS_TYPE = 0
CLASSIFICATION_TYPE = U
NORAD_CAT_ID   = 68281
ELEMENT_SET_NO = 999
REV_AT_EPOCH   = 390
BSTAR          = -.54326859E-4
MEAN_MOTION_DOT = -.11433E-3
MEAN_MOTION_DDOT = 0

CCSDS_OMM_VERS = 2.0
CREATION_DATE  = 
ORIGINATOR     = 

OBJECT_NAME    = STARLINK-37160
OBJECT_ID      = 2026-055W
CENTER_NAME    = EARTH
REF_FRAME      = TEME
TIME_SYSTEM    = UTC
MEAN_ELEMENT_THEORY = SGP/SGP4

EPOCH          = 2026-04-05T06:00:02.000160
MEAN_MOTION    = 15.80949740
ECCENTRICITY   = .00006427
INCLINATION    = 53.1590
RA_OF_ASC_NODE = 204.0186
ARG_OF_PERICENTER = 96.3161
MEAN_ANOMALY   = 299.6775

EPHEMERIS_TYPE = 0
CLASSIFICATION_TYPE = U
NORAD_CAT_ID   = 68282
ELEMENT_SET_NO = 999
REV_AT_EPOCH   = 390
BSTAR          = -.87960283E-4
MEAN_MOTION_DOT = -.18083E-3
MEAN_MOTION_DDOT = 0

CCSDS_OMM_VERS = 2.0
CREATION_DATE  = 
ORIGINATOR     = 

OBJECT_NAME    = STARLINK-37124
OBJECT_ID      = 2026-055X
CENTER_NAME    = EARTH
REF_FRAME      = TEME
TIME_SYSTEM    = UTC
MEAN_ELEMENT_THEORY = SGP/SGP4

EPOCH          = 2026-04-05T06:00:02.000160
MEAN_MOTION    = 15.80900008
ECCENTRICITY   = .00013788
INCLINATION    = 53.1591
RA_OF_ASC_NODE = 204.0006
ARG_OF_PERICENTER = 66.1034
MEAN_ANOMALY   = 338.4558

EPHEMERIS_TYPE = 0
CLASSIFICATION_TYPE = U
NORAD_CAT_ID   = 68283
ELEMENT_SET_NO = 999
REV_AT_EPOCH   = 390
BSTAR          = .28697403E-3
MEAN_MOTION_DOT = .56382E-3
MEAN_MOTION_DDOT = 0

CCSDS_OMM_VERS = 2.0
CREATION_DATE  = 
ORIGINATOR     = 

OBJECT_NAME    = STARLINK-37159
OBJECT_ID      = 2026-055Y
CENTER_NAME    = EARTH
REF_FRAME      = TEME
TIME_SYSTEM    = UTC
MEAN_ELEMENT_THEORY = SGP/SGP4

EPOCH          = 2026-04-05T06:00:02.000160
MEAN_MOTION    = 15.80921894
ECCENTRICITY   = .00007629
INCLINATION    = 53.1590
RA_OF_ASC_NODE = 203.9919
ARG_OF_PERICENTER = 112.3204
MEAN_ANOMALY   = 296.5022

EPHEMERIS_TYPE = 0
CLASSIFICATION_TYPE = U
NORAD_CAT_ID   = 68284
ELEMENT_SET_NO = 999
REV_AT_EPOCH   = 390
BSTAR          = .65065672E-4
MEAN_MOTION_DOT = .1219E-3
MEAN_MOTION_DDOT = 0

CCSDS_OMM_VERS = 2.0
CREATION_DATE  = 
ORIGINATOR     = 

OBJECT_NAME    = STARLINK-36725
OBJECT_ID      = 2026-055Z
CENTER_NAME    = EARTH
REF_FRAME      = TEME
TIME_SYSTEM    = UTC
MEAN_ELEMENT_THEORY = SGP/SGP4

EPOCH          = 2026-04-05T06:00:02.000160
MEAN_MOTION    = 15.80906767
ECCENTRICITY   = .00009268
INCLINATION    = 53.1590
RA_OF_ASC_NODE = 203.9821
ARG_OF_PERICENTER = 105.6438
MEAN_ANOMALY   = 307.4603

EPHEMERIS_TYPE = 0
CLASSIFICATION_TYPE = U
NORAD_CAT_ID   = 68285
ELEMENT_SET_NO = 999
REV_AT_EPOCH   = 390
BSTAR          = .18647676E-3
MEAN_MOTION_DOT = .36317E-3
MEAN_MOTION_DDOT = 0

CCSDS_OMM_VERS = 2.0
CREATION_DATE  = 
ORIGINATOR     = 

OBJECT_NAME    = STARLINK-36998
OBJECT_ID      = 2026-055AA
CENTER_NAME    = EARTH
REF_FRAME      = TEME
TIME_SYSTEM    = UTC
MEAN_ELEMENT_THEORY = SGP/SGP4

EPOCH          = 2026-04-05T06:00:02.000160
MEAN_MOTION    = 15.80951112
ECCENTRICITY   = .00012564
INCLINATION    = 53.1592
RA_OF_ASC_NODE = 203.9667
ARG_OF_PERICENTER = 73.4951
MEAN_ANOMALY   = 348.1352

EPHEMERIS_TYPE = 0
CLASSIFICATION_TYPE = U
NORAD_CAT_ID   = 68286
ELEMENT_SET_NO = 999
REV_AT_EPOCH   = 390
BSTAR          = -.17896316E-3
MEAN_MOTION_DOT = -.36002E-3
MEAN_MOTION_DDOT = 0

CCSDS_OMM_VERS = 2.0
CREATION_DATE  = 
ORIGINATOR     = 

OBJECT_NAME    = STARLINK-37165
OBJECT_ID      = 2026-055AB
CENTER_NAME    = EARTH
REF_FRAME      = TEME
TIME_SYSTEM    = UTC
MEAN_ELEMENT_THEORY = SGP/SGP4

EPOCH          = 2026-04-05T06:00:02.000160
MEAN_MOTION    = 15.80945230
ECCENTRICITY   = .00006851
INCLINATION    = 53.1592
RA_OF_ASC_NODE = 203.9559
ARG_OF_PERICENTER = 85.4141
MEAN_ANOMALY   = 340.4891

EPHEMERIS_TYPE = 0
CLASSIFICATION_TYPE = U
NORAD_CAT_ID   = 68287
ELEMENT_SET_NO = 999
REV_AT_EPOCH   = 390
BSTAR          = -.89955903E-4
MEAN_MOTION_DOT = -.18473E-3
MEAN_MOTION_DDOT = 0

CCSDS_OMM_VERS = 2.0
CREATION_DATE  = 
ORIGINATOR     = 

OBJECT_NAME    = STARLINK-37016
OBJECT_ID      = 2026-055AC
CENTER_NAME    = EARTH
REF_FRAME      = TEME
TIME_SYSTEM    = UTC
MEAN_ELEMENT_THEORY = SGP/SGP4

EPOCH          = 2026-04-05T06:00:02.000160
MEAN_MOTION    = 15.80948860
ECCENTRICITY   = .00010003
INCLINATION    = 53.1590
RA_OF_ASC_NODE = 203.9743
ARG_OF_PERICENTER = 98.3292
MEAN_ANOMALY   = 319.0016

EPHEMERIS_TYPE = 0
CLASSIFICATION_TYPE = U
NORAD_CAT_ID   = 68288
ELEMENT_SET_NO = 999
REV_AT_EPOCH   = 390
BSTAR          = -.34962696E-4
MEAN_MOTION_DOT = -.7618E-4
MEAN_MOTION_DDOT = 0

CCSDS_OMM_VERS = 2.0
CREATION_DATE  = 
ORIGINATOR     = 

OBJECT_NAME    = STARLINK-37010
OBJECT_ID      = 2026-055AD
CENTER_NAME    = EARTH
REF_FRAME      = TEME
TIME_SYSTEM    = UTC
MEAN_ELEMENT_THEORY = SGP/SGP4

EPOCH          = 2026-04-05T06:00:02.000160
MEAN_MOTION    = 15.81019557
ECCENTRICITY   = .00013761
INCLINATION    = 53.1593
RA_OF_ASC_NODE = 203.9471
ARG_OF_PERICENTER = 60.1954
MEAN_ANOMALY   = 9.9219

EPHEMERIS_TYPE = 0
CLASSIFICATION_TYPE = U
NORAD_CAT_ID   = 68289
ELEMENT_SET_NO = 999
REV_AT_EPOCH   = 390
BSTAR          = -.60121978E-3
MEAN_MOTION_DOT = -.118549E-2
MEAN_MOTION_DDOT = 0

CCSDS_OMM_VERS = 2.0
CREATION_DATE  = 
ORIGINATOR     = 

OBJECT_NAME    = STARLINK-37151
OBJECT_ID      = 2026-055AE
CENTER_NAME    = EARTH
REF_FRAME      = TEME
TIME_SYSTEM    = UTC
MEAN_ELEMENT_THEORY = SGP/SGP4

EPOCH          = 2026-04-05T06:00:02.000160
MEAN_MOTION    = 15.80964072
ECCENTRICITY   = .000087
INCLINATION    = 53.1592
RA_OF_ASC_NODE = 203.9382
ARG_OF_PERICENTER = 101.2243
MEAN_ANOMALY   = 333.2016

EPHEMERIS_TYPE = 0
CLASSIFICATION_TYPE = U
NORAD_CAT_ID   = 68290
ELEMENT_SET_NO = 999
REV_AT_EPOCH   = 390
BSTAR          = -.21883011E-3
MEAN_MOTION_DOT = -.4385E-3
MEAN_MOTION_DDOT = 0

CCSDS_OMM_VERS = 2.0
CREATION_DATE  = 
ORIGINATOR     = 

OBJECT_NAME    = STRIX-6
OBJECT_ID      = 2026-056A
CENTER_NAME    = EARTH
REF_FRAME      = TEME
TIME_SYSTEM    = UTC
MEAN_ELEMENT_THEORY = SGP/SGP4

EPOCH          = 2026-04-05T04:13:05.776320
MEAN_MOTION    = 14.99705790
ECCENTRICITY   = .00164944
INCLINATION    = 50.2836
RA_OF_ASC_NODE = 334.8008
ARG_OF_PERICENTER = 324.1008
MEAN_ANOMALY   = 35.8832

EPHEMERIS_TYPE = 0
CLASSIFICATION_TYPE = U
NORAD_CAT_ID   = 68291
ELEMENT_SET_NO = 999
REV_AT_EPOCH   = 231
BSTAR          = .44806775E-3
MEAN_MOTION_DOT = .5348E-4
MEAN_MOTION_DDOT = 0

CCSDS_OMM_VERS = 2.0
CREATION_DATE  = 
ORIGINATOR     = 

OBJECT_NAME    = ELECTRON KICK STAGE R/B
OBJECT_ID      = 2026-056C
CENTER_NAME    = EARTH
REF_FRAME      = TEME
TIME_SYSTEM    = UTC
MEAN_ELEMENT_THEORY = SGP/SGP4

EPOCH          = 2026-04-05T05:32:45.076128
MEAN_MOTION    = 15.41260946
ECCENTRICITY   = .01523768
INCLINATION    = 50.2916
RA_OF_ASC_NODE = 329.9092
ARG_OF_PERICENTER = 73.8729
MEAN_ANOMALY   = 287.8951

EPHEMERIS_TYPE = 0
CLASSIFICATION_TYPE = U
NORAD_CAT_ID   = 68293
ELEMENT_SET_NO = 999
REV_AT_EPOCH   = 239
BSTAR          = .15715652E-2
MEAN_MOTION_DOT = .102429E-2
MEAN_MOTION_DDOT = 0

